GLOBALSTAR M057         
1 25943U 99058A   25177.33563480 -.00000049  00000+0  39883-3 0  9995
2 25943  52.0002 322.2420 0003040  50.1220 309.9897 12.24823093168055
GLOBALSTAR M059         
1 25944U 99058B   25178.32543671 -.00000092  00000+0 -77606-4 0  9991
2 25944  51.9985 179.7458 0000715 313.1307  59.6369 11.99980040575269
GLOBALSTAR M056         
1 25945U 99058C   25178.21770498 -.00000120  00000+0 -37573-3 0  9999
2 25945  51.9932 181.7393 0001072 210.9690 231.5259 12.04781840163883
GLOBALSTAR M031         
1 25946U 99058D   25178.46789462  .00000058  00000+0  15093-2 0  9998
2 25946  51.9970  72.7707 0000797 174.6582  12.5733 12.16037390165796
GLOBALSTAR M039         
1 25961U 99062A   25178.14165508 -.00000102  00000+0  10095-4 0  9994
2 25961  51.9836 238.3988 0002391  14.5739 345.5196 12.62328743181474
GLOBALSTAR M034         
1 25962U 99062B   25178.44907878 -.00000132  00000+0 -81248-3 0  9993
2 25962  51.9895 344.7123 0014763  62.7409 322.5617 11.79445856139601
GLOBALSTAR M029         
1 25963U 99062C   25178.45523550 -.00000042  00000+0  54658-3 0  9990
2 25963  51.9814  67.4216 0002643 122.5394  48.5386 11.99898171170356
GLOBALSTAR M061         
1 25964U 99062D   25178.21922286 -.00000078  00000+0  40957-4 0  9991
2 25964  51.9761 169.4776 0006213 341.4730  31.6746 11.76776467122656
